#dP2021  2 22  0  0  0.00000000      96 __u+U ITR00 FIT  IAC
## 2146  86400.00000000   900.00000000 59267 0.0000000000000
+  117   C06C07C08C09C10C11C12C13C14C16C19C20C21C22C23C24C25
+        C26C27C28C29C30C32C33C34C35C36C37C38C39C40C41C42C43
+        C44C45C46E01E02E03E04E05E07E08E09E11E12E13E14E15E18
+        E19E21E24E25E26E27E30E31E33E36G01G02G03G04G05G06G07
+        G08G09G10G11G12G13G14G15G16G17G18G19G20G21G22G23G24
+        G25G26G27G28G29G30G31G32J01J02J03R01R02R03R04R05R07
+        R08R09R11R12R13R14R15R16R17R18R19R20R21R22R24  0  0
++         9  8  7  9  8  7  7  7  7  8  7  6  6  7  7  7  6
++         8  6  9  8  7  8  9  7  6  6  7  9  8  7  6  6  8
++         7  6  7  6  6  6  6  6  7  7  6  6  7  7  7  7  7
++         7  6  6  7  7  7  7  6  7  6  6  6  6  6  6  6  7
++         6  6  6  7  7  6  7  6  6  6  7  7  7  7  7  6  6
++         7  6  7  7  7  7  7  6  7  8  8  8  5  8  7  6  7
++         8  6  6  8  8  7  7  6  6  6  6  7  6  7  7  0  0
%c M  cc GPS ccc cccc cccc cccc cccc ccccc ccccc ccccc ccccc
%c cc cc ccc ccc cccc cccc cccc cccc ccccc ccccc ccccc ccccc
%f  0.0000000  0.000000000  0.00000000000  0.000000000000000
%f  0.0000000  0.000000000  0.00000000000  0.000000000000000
%i    0    0    0    0      0      0      0      0         0
%i    0    0    0    0      0      0      0      0         0
/* INFORMATION & ANALYSIS CENTER (IAC)      ULTRA-RAPID DATA
/* S/V CLOCKS ARE ALIGNED TO GNSS TIME                      
/* G:C1WC2W R:C1PC2P E:C1XC5X C:C2IC6I J:C1CC2S             
/* PCV:IGS14_2134 OL/AL:FES2004  NONE     YN ORB:CoN CLK:CoN
*  2021 02 22  2 30  0.00000000
PC06 -20188.491242  23957.139861  28428.946634    113.348203
PC07 -16879.279685  38300.426111   7233.293078   -350.250797
PC08  -5906.390395  23846.938442 -34062.832160   -910.097770
PC09  -4401.001597  24904.030869  33955.717323    716.579172
PC10  -7130.929980  41457.697766  -5105.151765    -82.523490
PC11 -27895.403744    768.925213   -991.567671   -909.057241
PC12 -20961.910438  -9914.625890  15575.752703    815.111888
PC13   7112.340518  32537.661558 -25579.989772    151.746983
PC14 -18836.247772   6226.112295 -19621.008407    193.228864
PC16 -17833.067730  24065.703055  29688.057826   -705.525982
PC19  18857.468719 -15675.383099  13333.777987    736.704038
PC20  16237.693665   2717.082041  22545.728346   -918.454473
PC21  -3752.753332 -20346.381724 -18699.177009   -850.031474
PC22  10630.297992 -25484.790480  -3933.121342   -888.806253
PC23  -1730.782694  21555.816656  17631.043764   -875.876435
PC24 -19908.272701 -13785.699043  13882.067045   -765.814126
PC25 -14953.921846   6565.621886  22620.951565   -942.008495
PC26 -13854.244222 -24178.067541  -1844.371802    945.101058
PC27  11978.392762  14242.882764 -20815.340884    487.340817
PC28  -9453.807267  14983.210549 -21555.478697   -106.617305
PC29  24959.902613  -7911.744218   9658.731354    355.707320
PC30  26281.940743   4472.621772  -8292.757542    446.927836
PC32   3918.563008  20347.807777  18710.670623   -898.666471
PC33 -18790.883938  15743.728600 -13340.374896   -956.923042
PC34 -26499.793597  -4124.590577   7657.878259   -734.513150
PC35   9295.073320 -15308.720865  21409.388580   -406.668974
PC36  15265.497781  -5891.014288 -22587.114051   -751.892232
PC37  12748.027998  24668.794105   2656.567206   -867.442684
PC38  -4813.606103  27174.613518 -31813.835923    131.571831
PC39 -16102.143075  25198.187895  29682.032498     28.710584
PC40 -13690.241959  39834.620459  -3242.711221    134.020379
PC41 -10681.655600  25510.370403   3738.979283   -929.797618
PC42 -15977.833732  -3412.762843 -22580.477647   -886.210561
PC43 -25210.439236   7569.461968  -9229.617506   -608.740542
PC44 -12181.854970 -14016.849435  20814.542707     51.044973
PC45   1529.024964 -21571.302521 -17654.077072    368.610247
PC46  19916.720370  12937.760187 -14620.375047    394.281153
PE01  -1584.071400  28985.921101   5751.554479  -1051.210432
PE02   1513.024721 -29029.361157  -5652.562011    200.154780
PE03   9427.986318 -21771.757989 -17694.830828   -401.323872
PE04  10382.188522  13598.703787  24158.667964   -714.799737
PE05  24015.074979 -17288.989511   -739.534171   -302.596078
PE07 -24442.662839   2773.738389 -16464.730267   -503.977026
PE08 -10668.970428 -13206.834915 -24247.150778   6043.400404
PE09  24417.104224  -3097.447478  16436.406517   5757.418625
PE11  27714.129278   7761.691662   6965.216760   6290.024435
PE12  19945.680385  18089.018608 -12310.838382   5344.144605
PE13 -27730.603678  -7975.370945  -6568.150441    412.481828
PE14  -7693.197893  22239.878511 -22456.656716  -1338.268886
PE15 -20017.722955 -17980.039126  12340.173419    828.108310
PE18   6512.616533 -15920.651271  15883.165554  -1463.052553
PE19 -11651.774084  21860.090325  16203.525910    209.821589
PE21 -12515.384610  17145.381305  20620.236749   -649.801812
PE24  16593.217014   5852.782750 -23813.692496   -756.463063
PE25  12592.886277 -16987.703130 -20716.247168   -526.949169
PE26 -18623.534764   7253.707036 -21822.200686   2120.451580
PE27 -16603.963742  -5059.020427  23977.889654     24.808249
PE30 -10396.324273 -24729.051830  12523.220224   3161.805761
PE31  10906.393698  24126.607707 -13221.721889   -478.520126
PE33    567.429016  17388.137012 -23937.365042   -465.910374
PE36  19126.161652  -6705.353584  21587.861253    437.396126
PG01  22269.201789  14336.072679   3490.093393    756.221808
PG02  -7928.154255 -19345.790981  17024.169061   -579.326815
PG03  13285.486502   9436.295693  20915.199957    -89.466658
PG04  20469.750564   4459.970127  16362.134293   -181.862817
PG05  -4674.034027 -24225.610664  -9741.863999    -34.354042
PG06   5461.190673 -14166.547681  21852.347348     -2.050332
PG07  21418.664925   2676.054799 -15455.683820     67.059019
PG08  14702.452327   8834.460023 -20352.041750    -11.192984
PG09  25036.514888  -5772.830307   6712.316700   -325.105351
PG10 -11648.412110  19625.974479 -13248.088402    -66.637695
PG11  22214.878561  11086.252556  -9375.798707    -17.923334
PG12 -10494.732184 -14535.985053  19401.398661     -4.452236
PG13  -3909.501376 -14599.793986 -21975.036826     99.950641
PG14  13299.303370 -18075.621971 -14211.234504     98.248135
PG15 -16195.072693  -8003.817598 -19928.137831   -167.785100
PG16    417.783615  24970.793994  -8552.778478   -283.722924
PG17  20141.503580 -14271.767129  10223.043580    398.253405
PG18 -19516.553397    364.013411 -18042.149268    348.309333
PG19  14256.779705 -15404.805032  15935.847614    -35.333713
PG20 -14864.721851   8264.436603 -20393.759669    524.575161
PG21  20696.857196  16480.220024  -3508.130378     97.580736
PG22  11413.835876  17964.349326  16190.990364   -674.506627
PG23 -14875.666681   9383.489244 -19912.297913    118.393945
PG24 -21437.735821 -15939.806035  -2037.950925      2.010420
PG25 -15230.268276   1317.247808  21438.178256     85.311742
PG26  -4316.999964  25898.729976   2852.778868     48.361507
PG27   1282.372884  15374.047003 -21732.847078    -80.989289
PG28  12370.318149 -20494.788703 -11144.984073    612.113562
PG29 -25409.567075   3805.272445   6775.105599   -299.398977
PG30  13728.031203  -8738.810617 -20974.635805   -388.367308
PG31  -3602.619428  15923.626491  20780.291422   -101.531140
PG32 -18422.567978  15912.375568  10515.185393     19.507020
PJ01 -26792.441560  32374.048908    550.882289   -342.639007
PJ02 -26328.436881  24182.593365  27238.920811      2.236745
PJ03 -33345.375945  17447.699972 -14391.765447     -0.960485
PR01   8038.021440   7679.596761  22960.200150     75.360968
PR02  17944.785101 -11183.323775  14354.367024    467.985500
PR03  15118.486004 -20435.100442  -2397.614276     31.189968
PR04   3922.518563 -17940.625764 -17680.166702     74.950415
PR05  -9441.157292  -5497.632303 -23038.041965     66.908130
PR07 -14758.593565  20537.460936   3177.324947    -42.492956
PR08  -3738.607365  17965.799055  17761.905601    -57.541287
PR09 -11807.506426    424.249973  22612.777852    -20.549329
PR11   7495.170558  24014.059441   4252.667817      2.962799
PR12  13433.083177  17053.212503 -13352.518904    206.971001
PR13  11754.803422    258.038830 -22657.582877    -51.057789
PR14   2946.053159 -17201.024848 -18595.073037     61.256995
PR15  -7324.469094 -24135.604098  -3818.731033    105.270549
PR16 -14030.892982 -16124.974424  13997.031127    -11.623639
PR17  12582.433736  -7558.674803  20865.763414    402.138647
PR18  -5496.402726 -11091.573752  22312.022575     67.453640
PR19 -20087.450635  -9544.690054  12495.718890   -132.999170
PR20 -24392.334208  -1497.568797  -7212.357213   -433.862188
PR21 -11519.680036   7838.683451 -21365.797962   -189.443435
PR22   6827.995059  11133.414759 -21940.331085    -99.131442
PR24  24254.687192    641.128759   7882.600003     32.453277
EOF
